[{"OBJECT_NAME":"LATINSAT A","OBJECT_ID":"2002-058H","EPOCH":"2026-03-09T22:00:26.760960","MEAN_MOTION":14.85263124,"ECCENTRICITY":0.00565777,"INCLINATION":64.5529,"RA_OF_ASC_NODE":269.8516,"ARG_OF_PERICENTER":262.8341,"MEAN_ANOMALY":96.6332,"EPHEMERIS_TYPE":0,"CLASSIFICATION_TYPE":"U","NORAD_CAT_ID":27612,"ELEMENT_SET_NO":999,"REV_AT_EPOCH":25288,"BSTAR":0.00015857266,"MEAN_MOTION_DOT":1.248e-5,"MEAN_MOTION_DDOT":0},{"OBJECT_NAME":"STARLINK-5062","OBJECT_ID":"2023-021K","EPOCH":"2026-03-09T17:21:18.039744","MEAN_MOTION":14.98327896,"ECCENTRICITY":0.00032112,"INCLINATION":70.0006,"RA_OF_ASC_NODE":184.4829,"ARG_OF_PERICENTER":272.1961,"MEAN_ANOMALY":87.883,"EPHEMERIS_TYPE":0,"CLASSIFICATION_TYPE":"U","NORAD_CAT_ID":55637,"ELEMENT_SET_NO":999,"REV_AT_EPOCH":16879,"BSTAR":-2.3702506e-5,"MEAN_MOTION_DOT":-3.76e-6,"MEAN_MOTION_DDOT":0}]
